{"type": "FeatureCollection", "features": [ {"type": "Feature", "properties": {"norad_id": 66597, "name": "STARLINK-35820", "group": "last-30-days", "lat": 0.016167334930022613, "lon": -147.25365177272693, "alt_km": 397.0000118327753, "timestamp": "2025-12-09T07:41:31.973260+00:00", "meta": {"OBJECT_NAME": "STARLINK-35820", "OBJECT_ID": "2025-270K", "EPOCH": "2025-12-08T22:00:03.000096", "MEAN_MOTION": 15.58490782, "ECCENTRICITY": 0.00012837, "INCLINATION": 42.9988, "RA_OF_ASC_NODE": 215.1165, "ARG_OF_PERICENTER": 259.7142, "MEAN_ANOMALY": 353.3692, "EPHEMERIS_TYPE": 0, "CLASSIFICATION_TYPE": "U", "NORAD_CAT_ID": 66597, "ELEMENT_SET_NO": 999, "REV_AT_EPOCH": 389, "BSTAR": -0.029203824, "MEAN_MOTION_DOT": -0.02008008, "MEAN_MOTION_DDOT": 0}, "tle": {"line1": "1 66597U 25270K   25342.91670139 -.02008008  00000+0 -29204-1 0  9998", "line2": "2 66597  42.9988 215.1165 0001283 259.7142 353.3692 15.58490782  3890"}}, "geometry": {"type": "Point", "coordinates": [-147.25365177272693, 0.016167334930022613]}}, {"type": "Feature", "properties": {"norad_id": 66598, "name": "STARLINK-35981", "group": "last-30-days", "lat": 1.3220167052759408, "lon": -145.85734069366478, "alt_km": 397.03788429483484, "timestamp": "2025-12-09T07:41:31.973273+00:00", "meta": {"OBJECT_NAME": "STARLINK-35981", "OBJECT_ID": "2025-270L", "EPOCH": "2025-12-08T22:00:03.000096", "MEAN_MOTION": 15.58490056, "ECCENTRICITY": 0.00012673, "INCLINATION": 42.9989, "RA_OF_ASC_NODE": 215.111, "ARG_OF_PERICENTER": 251.1271, "MEAN_ANOMALY": 3.8714, "EPHEMERIS_TYPE": 0, "CLASSIFICATION_TYPE": "U", "NORAD_CAT_ID": 66598, "ELEMENT_SET_NO": 999, "REV_AT_EPOCH": 362, "BSTAR": -0.02914958, "MEAN_MOTION_DOT": -0.02004686, "MEAN_MOTION_DDOT": 0}, "tle": {"line1": "1 66598U 25270L   25342.91670139 -.02004686  00000+0 -29150-1 0  9997", "line2": "2 66598  42.9989 215.1110 0001267 251.1271   3.8714 15.58490056  3620"}}, "geometry": {"type": "Point", "coordinates": [-145.85734069366478, 1.3220167052759408]}}, {"type": "Feature", "properties": {"norad_id": 66599, "name": "STARLINK-35930", "group": "last-30-days", "lat": 2.6286469117975, "lon": -144.45605749626097, "alt_km": 396.7983441887227, "timestamp": "2025-12-09T07:41:31.973283+00:00", "meta": {"OBJECT_NAME": "STARLINK-35930", "OBJECT_ID": "2025-270M", "EPOCH": "2025-12-08T22:00:03.000096", "MEAN_MOTION": 15.58490277, "ECCENTRICITY": 0.00013101, "INCLINATION": 42.9989, "RA_OF_ASC_NODE": 215.1073, "ARG_OF_PERICENTER": 256.4497, "MEAN_ANOMALY": 0.4671, "EPHEMERIS_TYPE": 0, "CLASSIFICATION_TYPE": "U", "NORAD_CAT_ID": 66599, "ELEMENT_SET_NO": 999, "REV_AT_EPOCH": 378, "BSTAR": -0.029191338, "MEAN_MOTION_DOT": -0.02007243, "MEAN_MOTION_DDOT": 0}, "tle": {"line1": "1 66599U 25270M   25342.91670139 -.02007243  00000+0 -29191-1 0  9995", "line2": "2 66599  42.9989 215.1073 0001310 256.4497   0.4671 15.58490277  3783"}}, "geometry": {"type": "Point", "coordinates": [-144.45605749626097, 2.6286469117975]}}, {"type": "Feature", "properties": {"norad_id": 66600, "name": "STARLINK-35980", "group": "last-30-days", "lat": 3.9335888432948227, "lon": -143.0540259892138, "alt_km": 396.6898711927124, "timestamp": "2025-12-09T07:41:31.973293+00:00", "meta": {"OBJECT_NAME": "STARLINK-35980", "OBJECT_ID": "2025-270N", "EPOCH": "2025-12-08T22:00:03.000096", "MEAN_MOTION": 15.58494781, "ECCENTRICITY": 0.00014135, "INCLINATION": 42.9987, "RA_OF_ASC_NODE": 215.1015, "ARG_OF_PERICENTER": 256.5817, "MEAN_ANOMALY": 2.252, "EPHEMERIS_TYPE": 0, "CLASSIFICATION_TYPE": "U", "NORAD_CAT_ID": 66600, "ELEMENT_SET_NO": 999, "REV_AT_EPOCH": 368, "BSTAR": -0.029347469, "MEAN_MOTION_DOT": -0.02055426, "MEAN_MOTION_DDOT": 0}, "tle": {"line1": "1 66600U 25270N   25342.91670139 -.02055426  00000+0 -29347-1 0  9997", "line2": "2 66600  42.9987 215.1015 0001413 256.5817   2.2520 15.58494781  3687"}}, "geometry": {"type": "Point", "coordinates": [-143.0540259892138, 3.9335888432948227]}}, {"type": "Feature", "properties": {"norad_id": 66601, "name": "STARLINK-35978", "group": "last-30-days", "lat": 5.235728034474923, "lon": -141.6462102725528, "alt_km": 396.52345198101193, "timestamp": "2025-12-09T07:41:31.973303+00:00", "meta": {"OBJECT_NAME": "STARLINK-35978", "OBJECT_ID": "2025-270P", "EPOCH": "2025-12-08T22:00:03.000096", "MEAN_MOTION": 15.58489253, "ECCENTRICITY": 0.00012441, "INCLINATION": 42.999, "RA_OF_ASC_NODE": 215.0976, "ARG_OF_PERICENTER": 254.8642, "MEAN_ANOMALY": 5.8884, "EPHEMERIS_TYPE": 0, "CLASSIFICATION_TYPE": "U", "NORAD_CAT_ID": 66601, "ELEMENT_SET_NO": 999, "REV_AT_EPOCH": 362, "BSTAR": -0.029167672, "MEAN_MOTION_DOT": -0.02005704, "MEAN_MOTION_DDOT": 0}, "tle": {"line1": "1 66601U 25270P   25342.91670139 -.02005704  00000+0 -29168-1 0  9993", "line2": "2 66601  42.9990 215.0976 0001244 254.8642   5.8884 15.58489253  3620"}}, "geometry": {"type": "Point", "coordinates": [-141.6462102725528, 5.235728034474923]}}, {"type": "Feature", "properties": {"norad_id": 66602, "name": "STARLINK-36050", "group": "last-30-days", "lat": 6.536342318011417, "lon": -140.23264601434227, "alt_km": 396.28782628292265, "timestamp": "2025-12-09T07:41:31.973313+00:00", "meta": {"OBJECT_NAME": "STARLINK-36050", "OBJECT_ID": "2025-270Q", "EPOCH": "2025-12-08T22:00:03.000096", "MEAN_MOTION": 15.58495688, "ECCENTRICITY": 0.000144, "INCLINATION": 42.9989, "RA_OF_ASC_NODE": 215.0917, "ARG_OF_PERICENTER": 261.7552, "MEAN_ANOMALY": 0.9137, "EPHEMERIS_TYPE": 0, "CLASSIFICATION_TYPE": "U", "NORAD_CAT_ID": 66602, "ELEMENT_SET_NO": 999, "REV_AT_EPOCH": 368, "BSTAR": -0.029374933, "MEAN_MOTION_DOT": -0.02057225, "MEAN_MOTION_DDOT": 0}, "tle": {"line1": "1 66602U 25270Q   25342.91670139 -.02057225  00000+0 -29375-1 0  9999", "line2": "2 66602  42.9989 215.0917 0001440 261.7552   0.9137 15.58495688  3681"}}, "geometry": {"type": "Point", "coordinates": [-140.23264601434227, 6.536342318011417]}}, {"type": "Feature", "properties": {"norad_id": 66603, "name": "STARLINK-36048", "group": "last-30-days", "lat": 7.8310878467826015, "lon": -138.8131536802782, "alt_km": 396.22169123281674, "timestamp": "2025-12-09T07:41:31.973324+00:00", "meta": {"OBJECT_NAME": "STARLINK-36048", "OBJECT_ID": "2025-270R", "EPOCH": "2025-12-08T22:00:03.000096", "MEAN_MOTION": 15.58498286, "ECCENTRICITY": 0.00014284, "INCLINATION": 42.9988, "RA_OF_ASC_NODE": 215.0864, "ARG_OF_PERICENTER": 258.1253, "MEAN_ANOMALY": 6.4588, "EPHEMERIS_TYPE": 0, "CLASSIFICATION_TYPE": "U", "NORAD_CAT_ID": 66603, "ELEMENT_SET_NO": 999, "REV_AT_EPOCH": 368, "BSTAR": -0.029418985, "MEAN_MOTION_DOT": -0.02060155, "MEAN_MOTION_DDOT": 0}, "tle": {"line1": "1 66603U 25270R   25342.91670139 -.02060155  00000+0 -29419-1 0  9995", "line2": "2 66603  42.9988 215.0864 0001428 258.1253   6.4588 15.58498286  3684"}}, "geometry": {"type": "Point", "coordinates": [-138.8131536802782, 7.8310878467826015]}}, {"type": "Feature", "properties": {"norad_id": 66604, "name": "STARLINK-35977", "group": "last-30-days", "lat": 9.119426030922071, "lon": -137.38538719017444, "alt_km": 396.1653886198228, "timestamp": "2025-12-09T07:41:31.973336+00:00", "meta": {"OBJECT_NAME": "STARLINK-35977", "OBJECT_ID": "2025-270S", "EPOCH": "2025-12-08T22:00:03.000096", "MEAN_MOTION": 15.58489973, "ECCENTRICITY": 0.00013044, "INCLINATION": 42.9991, "RA_OF_ASC_NODE": 215.0824, "ARG_OF_PERICENTER": 250.7149, "MEAN_ANOMALY": 15.7861, "EPHEMERIS_TYPE": 0, "CLASSIFICATION_TYPE": "U", "NORAD_CAT_ID": 66604, "ELEMENT_SET_NO": 999, "REV_AT_EPOCH": 378, "BSTAR": -0.029162427, "MEAN_MOTION_DOT": -0.0200548, "MEAN_MOTION_DDOT": 0}, "tle": {"line1": "1 66604U 25270S   25342.91670139 -.02005480  00000+0 -29162-1 0  9991", "line2": "2 66604  42.9991 215.0824 0001304 250.7149  15.7861 15.58489973  3781"}}, "geometry": {"type": "Point", "coordinates": [-137.38538719017444, 9.119426030922071]}}, {"type": "Feature", "properties": {"norad_id": 66605, "name": "STARLINK-36052", "group": "last-30-days", "lat": 10.406676651482295, "lon": -135.94306179579047, "alt_km": 395.87150371140524, "timestamp": "2025-12-09T07:41:31.973348+00:00", "meta": {"OBJECT_NAME": "STARLINK-36052", "OBJECT_ID": "2025-270T", "EPOCH": "2025-12-08T22:00:03.000096", "MEAN_MOTION": 15.58499747, "ECCENTRICITY": 0.00014933, "INCLINATION": 42.9989, "RA_OF_ASC_NODE": 215.0773, "ARG_OF_PERICENTER": 261.4344, "MEAN_ANOMALY": 6.9848, "EPHEMERIS_TYPE": 0, "CLASSIFICATION_TYPE": "U", "NORAD_CAT_ID": 66605, "ELEMENT_SET_NO": 999, "REV_AT_EPOCH": 378, "BSTAR": -0.029504421, "MEAN_MOTION_DOT": -0.02065642, "MEAN_MOTION_DDOT": 0}, "tle": {"line1": "1 66605U 25270T   25342.91670139 -.02065642  00000+0 -29504-1 0  9998", "line2": "2 66605  42.9989 215.0773 0001493 261.4344   6.9848 15.58499747  3784"}}, "geometry": {"type": "Point", "coordinates": [-135.94306179579047, 10.406676651482295]}}, {"type": "Feature", "properties": {"norad_id": 66606, "name": "STARLINK-36063", "group": "last-30-days", "lat": 12.953501983124736, "lon": -133.02847886670176, "alt_km": 395.70704158083936, "timestamp": "2025-12-09T07:41:31.973360+00:00", "meta": {"OBJECT_NAME": "STARLINK-36063", "OBJECT_ID": "2025-270U", "EPOCH": "2025-12-08T22:00:03.000096", "MEAN_MOTION": 15.58490878, "ECCENTRICITY": 0.00013438, "INCLINATION": 42.9988, "RA_OF_ASC_NODE": 215.068, "ARG_OF_PERICENTER": 250.6544, "MEAN_ANOMALY": 21.5976, "EPHEMERIS_TYPE": 0, "CLASSIFICATION_TYPE": "U", "NORAD_CAT_ID": 66606, "ELEMENT_SET_NO": 999, "REV_AT_EPOCH": 378, "BSTAR": -0.029192147, "MEAN_MOTION_DOT": -0.02007357, "MEAN_MOTION_DDOT": 0}, "tle": {"line1": "1 66606U 25270U   25342.91670139 -.02007357  00000+0 -29192-1 0  9991", "line2": "2 66606  42.9988 215.0680 0001343 250.6544  21.5976 15.58490878  3788"}}, "geometry": {"type": "Point", "coordinates": [-133.02847886670176, 12.953501983124736]}}]}